H1 CPF  1  HTS 2022  9 16 12  7591 ajisai           NONE
H2  8606101 1500    16908 2022 09 16  0  0  0 2022 09 21  0  0  0   240 1 1  0 0 0
H5  1.0100 
H9 
10 0 59840  21840.00000  0    6130610.821   -2275185.272    4367998.464
10 0 59840  22080.00000  0    5867995.950    -888309.651    5160263.072
10 0 59840  22320.00000  0    5381087.156     553142.659    5709700.582
10 0 59840  22560.00000  0    4693667.508    1989367.538    5990666.257
10 0 59840  22800.00000  0    3836679.840    3359935.616    5990117.463
10 0 59840  23040.00000  0    2846798.288    4606334.006    5708180.361
10 0 59840  23280.00000  0    1764849.102    5674464.898    5158124.933
10 0 59840  23520.00000  0     634140.946    6517007.818    4365752.927
10 0 59840  23760.00000  0    -501238.348    7095552.738    3368222.270
10 0 59840  24000.00000  0   -1598104.761    7382411.090    2212344.402
10 0 59840  24240.00000  0   -2615783.122    7362004.701     952415.213
10 0 59840  24480.00000  0   -3517574.754    7031749.991    -352323.257
10 0 59840  24720.00000  0   -4272034.839    6402377.572   -1640478.660
10 0 59840  24960.00000  0   -4854006.044    5497642.544   -2851426.701
10 0 59840  25200.00000  0   -5245363.288    4353428.759   -3928189.892
10 0 59840  25440.00000  0   -5435453.907    3016297.206   -4820128.302
10 0 59840  25680.00000  0   -5421235.229    1541551.223   -5485312.107
10 0 59840  25920.00000  0   -5207127.404      -9088.735   -5892469.106
10 0 59840  26160.00000  0   -4804609.839   -1570094.828   -6022427.956
10 0 59840  26400.00000  0   -4231597.191   -3074917.890   -5869003.052
10 0 59840  26640.00000  0   -3511634.255   -4458839.476   -5439290.685
10 0 59840  26880.00000  0   -2672942.922   -5661785.478   -4753366.688
10 0 59840  27120.00000  0   -1747349.465   -6630989.521   -3843388.962
10 0 59840  27360.00000  0    -769122.056   -7323389.186   -2752130.385
10 0 59840  27600.00000  0     226248.660   -7707637.573   -1530992.693
10 0 59840  27840.00000  0    1203288.468   -7765616.335    -237580.595
10 0 59840  28080.00000  0    2127752.764   -7493354.091    1067047.829
10 0 59840  28320.00000  0    2967770.827   -6901291.646    2321314.494
10 0 59840  28560.00000  0    3694877.768   -6013861.777    3466084.035
10 0 59840  28800.00000  0    4284886.455   -4868408.003    4447483.842
10 0 59840  29040.00000  0    4718579.653   -3513524.809    5219438.063
10 0 59840  29280.00000  0    4982218.400   -2006910.707    5745804.129
10 0 59840  29520.00000  0    5067866.913    -412840.925    6002020.446
10 0 59840  29760.00000  0    4973539.242    1200620.634    5976202.134
10 0 59840  30000.00000  0    4703179.531    2764545.674    5669653.766
10 0 59840  30240.00000  0    4266491.145    4212089.522    5096792.699
10 0 59840  30480.00000  0    3678622.044    5481356.913    4284487.902
10 0 59840  30720.00000  0    2959707.548    6518076.404    3270835.172
10 0 59840  30960.00000  0    2134273.104    7277971.441    2103409.255
10 0 59840  31200.00000  0    1230499.074    7728717.837     837056.594
10 0 59840  31440.00000  0     279357.849    7851380.532    -468676.304
10 0 59840  31680.00000  0    -686352.425    7641251.277   -1752353.784
10 0 59840  31920.00000  0   -1633051.599    7108042.631   -2953565.382
10 0 59840  32160.00000  0   -2527467.861    6275418.139   -4015794.792
10 0 59840  32400.00000  0   -3337732.200    5179886.638   -4889089.118
10 0 59840  32640.00000  0   -4034439.852    3869132.561   -5532397.811
10 0 59840  32880.00000  0   -4591649.825    2399876.770   -5915476.765
10 0 59840  33120.00000  0   -4987798.610     835375.505   -6020283.313
10 0 59840  33360.00000  0   -5206506.537    -757332.490   -5841810.023
10 0 59840  33600.00000  0   -5237255.109   -2310316.923   -5388328.602
10 0 59840  33840.00000  0   -5075913.832   -3757674.281   -4681033.561
10 0 59840  34080.00000  0   -4725088.497   -5038363.081   -3753092.429
10 0 59840  34320.00000  0   -4194257.317   -6098839.516   -2648129.410
10 0 59840  34560.00000  0   -3499666.770   -6895373.451   -1418196.684
10 0 59840  34800.00000  0   -2663966.812   -7395930.670    -121316.850
10 0 59840  35040.00000  0   -1715576.248   -7581517.601    1181290.086
10 0 59840  35280.00000  0    -687790.587   -7446909.739    2428148.562
10 0 59840  35520.00000  0     382335.480   -7000731.745    3560478.421
10 0 59840  35760.00000  0    1455290.369   -6264894.252    4524999.736
10 0 59840  36000.00000  0    2490536.708   -5273431.329    5276441.086
10 0 59840  36240.00000  0    3448009.429   -4070826.386    5779631.512
10 0 59840  36480.00000  0    4289626.576   -2709933.603    6011095.664
10 0 59840  36720.00000  0    4980770.905   -1249602.824    5960101.386
10 0 59840  36960.00000  0    5491697.662     247893.116    5629126.368
10 0 59840  37200.00000  0    5798814.866    1719522.644    5033728.321
10 0 59840  37440.00000  0    5885790.187    3104145.644    4201831.587
10 0 59840  37680.00000  0    5744437.321    4345056.927    3172453.566
10 0 59840  37920.00000  0    5375326.091    5392325.112    1993912.698
10 0 59840  38160.00000  0    4788066.640    6204829.788     721585.963
10 0 59840  38400.00000  0    4001225.810    6751901.207    -584690.760
10 0 59840  38640.00000  0    3041855.418    7014478.739   -1863453.144
10 0 59840  38880.00000  0    1944638.622    6985737.161   -3054523.561
10 0 59840  39120.00000  0     750680.804    6671158.105   -4101864.397
10 0 59840  39360.00000  0    -494007.821    6088054.585   -4956223.754
10 0 59840  39600.00000  0   -1740273.314    5264590.924   -5577441.592
10 0 59840  39840.00000  0   -2937748.817    4238367.652   -5936311.976
10 0 59840  40080.00000  0   -4036879.154    3054655.348   -6015927.911
10 0 59840  40320.00000  0   -4990966.105    1764366.905   -5812462.180
10 0 59840  40560.00000  0   -5758163.660     421854.861   -5335358.043
10 0 59840  40800.00000  0   -6303348.183    -917381.989   -4606920.268
10 0 59840  41040.00000  0   -6599785.493   -2198999.700   -3661315.837
10 0 59840  41280.00000  0   -6630509.450   -3372033.306   -2543009.304
10 0 59840  41520.00000  0   -6389325.722   -4390950.315   -1304689.662
10 0 59840  41760.00000  0   -5881368.983   -5217442.884      -4779.448
10 0 59840  42000.00000  0   -5123161.154   -5821876.752    1295356.991
10 0 59840  42240.00000  0   -4142143.445   -6184326.438    2534364.368
10 0 59840  42480.00000  0   -2975691.637   -6295147.772    3653842.716
10 0 59840  42720.00000  0   -1669665.868   -6155076.344    4601126.985
10 0 59840  42960.00000  0    -276569.551   -5774875.829    5331761.881
10 0 59840  43200.00000  0    1146599.285   -5174580.145    5811558.635
10 0 59840  43440.00000  0    2540703.526   -4382386.792    6018144.591
10 0 59840  43680.00000  0    3846925.321   -3433280.439    5941953.473
10 0 59840  43920.00000  0    5009240.929   -2367464.377    5586636.297
10 0 59840  44160.00000  0    5976829.809   -1228658.196    4968885.363
10 0 59840  44400.00000  0    6706322.288     -62319.460    4117671.470
10 0 59840  44640.00000  0    7163788.130    1086143.425    3072920.354
10 0 59840  44880.00000  0    7326376.134    2173107.661    1883677.146
10 0 59840  45120.00000  0    7183513.779    3158361.973     605827.864
10 0 59840  45360.00000  0    6737587.158    4006560.021    -700525.665
10 0 59840  45600.00000  0    6004044.176    4688439.647   -1973910.775
10 0 59840  45840.00000  0    5010901.821    5181760.663   -3154401.991
10 0 59840  46080.00000  0    3797673.154    5471927.612   -4186461.378
10 0 59840  46320.00000  0    2413767.607    5552285.691   -5021557.124
10 0 59840  46560.00000  0     916440.890    5424099.123   -5620434.089
10 0 59840  46800.00000  0    -631607.727    5096235.336   -5954934.057
10 0 59840  47040.00000  0   -2164883.708    4584592.434   -6009293.226
10 0 59840  47280.00000  0   -3617883.202    3911310.226   -5780870.115
10 0 59840  47520.00000  0   -4927907.719    3103807.120   -5280280.311
10 0 59840  47760.00000  0   -6037803.150    2193681.885   -4530933.752
10 0 59840  48000.00000  0   -6898515.325    1215512.265   -3567984.175
10 0 59840  48240.00000  0   -7471346.870     205584.721   -2436719.679
10 0 59840  48480.00000  0   -7729799.129    -799408.057   -1190450.679
10 0 59840  48720.00000  0   -7660885.757   -1763659.420     112017.129
10 0 59840  48960.00000  0   -7265828.707   -2653477.110    1409197.673
10 0 59840  49200.00000  0   -6560094.439   -3438400.295    2639878.293
10 0 59840  49440.00000  0   -5572759.543   -4092165.639    3746057.562
10 0 59840  49680.00000  0   -4345239.205   -4593487.046    4675706.423
10 0 59840  49920.00000  0   -2929457.584   -4926629.015    5385209.626
10 0 59840  50160.00000  0   -1385567.932   -5081772.479    5841375.484
10 0 59840  50400.00000  0     220662.189   -5055185.340    6022940.006
10 0 59840  50640.00000  0    1820688.518   -4849209.367    5921511.194
10 0 59840  50880.00000  0    3346125.351   -4472080.317    5541923.415
10 0 59840  51120.00000  0    4731668.629   -3937604.013    4902003.835
10 0 59840  51360.00000  0    5917906.082   -3264694.918    4031760.058
10 0 59840  51600.00000  0    6853903.791   -2476778.766    2972012.105
10 0 59840  51840.00000  0    7499452.070   -1601064.923    1772512.908
10 0 59840  52080.00000  0    7826860.579    -667702.945     489634.495
10 0 59840  52320.00000  0    7822209.671     291161.055    -816280.957
10 0 59840  52560.00000  0    7485979.820    1242403.861   -2083779.247
10 0 59840  52800.00000  0    6833019.145    2152986.243   -3253212.269
10 0 59840  53040.00000  0    5891854.560    2991018.910   -4269564.460
10 0 59840  53280.00000  0    4703386.863    3726799.321   -5085045.733
10 0 59840  53520.00000  0    3319045.267    4333786.055   -5661323.582
10 0 59840  53760.00000  0    1798504.409    4789487.077   -5971298.248
10 0 59840  54000.00000  0     207070.639    5076244.045   -6000352.679
10 0 59840  54240.00000  0   -1387148.366    5181894.654   -5747030.480
99
